{"type": "FeatureCollection", "features": [ {"type": "Feature", "properties": {"norad_id": 33799, "name": "COSMOS 2251 DEB", "group": "cosmos-2251-debris", "lat": 54.84471803093129, "lon": 125.78267906934097, "alt_km": 633.7881360639767, "timestamp": "2025-12-02T13:52:17.653835+00:00", "meta": {"OBJECT_NAME": "COSMOS 2251 DEB", "OBJECT_ID": "1993-036AQ", "EPOCH": "2025-12-02T01:10:54.051744", "MEAN_MOTION": 14.79269053, "ECCENTRICITY": 0.00247363, "INCLINATION": 74.0309, "RA_OF_ASC_NODE": 102.831, "ARG_OF_PERICENTER": 176.2072, "MEAN_ANOMALY": 307.7609, "EPHEMERIS_TYPE": 0, "CLASSIFICATION_TYPE": "U", "NORAD_CAT_ID": 33799, "ELEMENT_SET_NO": 999, "REV_AT_EPOCH": 88653, "BSTAR": 0.0022008618, "MEAN_MOTION_DOT": 0.00016456, "MEAN_MOTION_DDOT": 0}, "tle": {"line1": "1 33799U 93036AQ  25336.04923671  .00016456  00000+0  22009-2 0  9999", "line2": "2 33799  74.0309 102.8310 0024736 176.2072 307.7609 14.79269053886536"}}, "geometry": {"type": "Point", "coordinates": [125.78267906934097, 54.84471803093129]}}, {"type": "Feature", "properties": {"norad_id": 33805, "name": "COSMOS 2251 DEB", "group": "cosmos-2251-debris", "lat": -72.8480313631641, "lon": -141.2383543621896, "alt_km": 715.2629049170482, "timestamp": "2025-12-02T13:52:17.653846+00:00", "meta": {"OBJECT_NAME": "COSMOS 2251 DEB", "OBJECT_ID": "1993-036AW", "EPOCH": "2025-12-02T07:43:44.295744", "MEAN_MOTION": 14.57816263, "ECCENTRICITY": 0.0060664, "INCLINATION": 74.0305, "RA_OF_ASC_NODE": 331.1498, "ARG_OF_PERICENTER": 163.0371, "MEAN_ANOMALY": 197.2842, "EPHEMERIS_TYPE": 0, "CLASSIFICATION_TYPE": "U", "NORAD_CAT_ID": 33805, "ELEMENT_SET_NO": 999, "REV_AT_EPOCH": 89075, "BSTAR": 0.00032749927, "MEAN_MOTION_DOT": 1.507e-05, "MEAN_MOTION_DDOT": 0}, "tle": {"line1": "1 33805U 93036AW  25336.32204046  .00001507  00000+0  32750-3 0  9992", "line2": "2 33805  74.0305 331.1498 0060664 163.0371 197.2842 14.57816263890757"}}, "geometry": {"type": "Point", "coordinates": [-141.2383543621896, -72.8480313631641]}}, {"type": "Feature", "properties": {"norad_id": 33811, "name": "COSMOS 2251 DEB", "group": "cosmos-2251-debris", "lat": -25.717641903237826, "lon": 151.75457022639094, "alt_km": 577.6049875679328, "timestamp": "2025-12-02T13:52:17.653856+00:00", "meta": {"OBJECT_NAME": "COSMOS 2251 DEB", "OBJECT_ID": "1993-036BC", "EPOCH": "2025-12-02T02:04:37.487136", "MEAN_MOTION": 15.04731404, "ECCENTRICITY": 0.00305851, "INCLINATION": 73.8377, "RA_OF_ASC_NODE": 324.7429, "ARG_OF_PERICENTER": 47.0484, "MEAN_ANOMALY": 18.5569, "EPHEMERIS_TYPE": 0, "CLASSIFICATION_TYPE": "U", "NORAD_CAT_ID": 33811, "ELEMENT_SET_NO": 999, "REV_AT_EPOCH": 89858, "BSTAR": 0.0016589495, "MEAN_MOTION_DOT": 0.00023659, "MEAN_MOTION_DDOT": 0}, "tle": {"line1": "1 33811U 93036BC  25336.08654499  .00023659  00000+0  16589-2 0  9996", "line2": "2 33811  73.8377 324.7429 0030585  47.0484  18.5569 15.04731404898583"}}, "geometry": {"type": "Point", "coordinates": [151.75457022639094, -25.717641903237826]}}, {"type": "Feature", "properties": {"norad_id": 33815, "name": "COSMOS 2251 DEB", "group": "cosmos-2251-debris", "lat": -41.77939094144649, "lon": 32.76569260311264, "alt_km": 525.6729709947922, "timestamp": "2025-12-02T13:52:17.653879+00:00", "meta": {"OBJECT_NAME": "COSMOS 2251 DEB", "OBJECT_ID": "1993-036BG", "EPOCH": "2025-12-02T02:20:21.842592", "MEAN_MOTION": 15.14422442, "ECCENTRICITY": 0.00047466, "INCLINATION": 73.9561, "RA_OF_ASC_NODE": 198.8699, "ARG_OF_PERICENTER": 247.7298, "MEAN_ANOMALY": 237.4395, "EPHEMERIS_TYPE": 0, "CLASSIFICATION_TYPE": "U", "NORAD_CAT_ID": 33815, "ELEMENT_SET_NO": 999, "REV_AT_EPOCH": 88209, "BSTAR": 0.0058616072, "MEAN_MOTION_DOT": 0.0010936, "MEAN_MOTION_DDOT": 0}, "tle": {"line1": "1 33815U 93036BG  25336.09747503  .00109360  00000+0  58616-2 0  9991", "line2": "2 33815  73.9561 198.8699 0004746 247.7298 237.4395 15.14422442882092"}}, "geometry": {"type": "Point", "coordinates": [32.76569260311264, -41.77939094144649]}}, {"type": "Feature", "properties": {"norad_id": 33816, "name": "COSMOS 2251 DEB", "group": "cosmos-2251-debris", "lat": -37.7350437301602, "lon": 109.69777705398155, "alt_km": 1158.0877904582212, "timestamp": "2025-12-02T13:52:17.653900+00:00", "meta": {"OBJECT_NAME": "COSMOS 2251 DEB", "OBJECT_ID": "1993-036BH", "EPOCH": "2025-12-02T03:38:46.872960", "MEAN_MOTION": 13.81756884, "ECCENTRICITY": 0.02653857, "INCLINATION": 73.8935, "RA_OF_ASC_NODE": 123.3401, "ARG_OF_PERICENTER": 138.322, "MEAN_ANOMALY": 223.8465, "EPHEMERIS_TYPE": 0, "CLASSIFICATION_TYPE": "U", "NORAD_CAT_ID": 33816, "ELEMENT_SET_NO": 999, "REV_AT_EPOCH": 84527, "BSTAR": 0.00066221193, "MEAN_MOTION_DOT": 9.04e-06, "MEAN_MOTION_DDOT": 0}, "tle": {"line1": "1 33816U 93036BH  25336.15193140  .00000904  00000+0  66221-3 0  9997", "line2": "2 33816  73.8935 123.3401 0265385 138.3220 223.8465 13.81756884845277"}}, "geometry": {"type": "Point", "coordinates": [109.69777705398155, -37.7350437301602]}}, {"type": "Feature", "properties": {"norad_id": 33818, "name": "COSMOS 2251 DEB", "group": "cosmos-2251-debris", "lat": -73.97905272910785, "lon": 103.33703204844963, "alt_km": 539.9918884219978, "timestamp": "2025-12-02T13:52:17.653919+00:00", "meta": {"OBJECT_NAME": "COSMOS 2251 DEB", "OBJECT_ID": "1993-036BK", "EPOCH": "2025-12-02T06:51:48.051648", "MEAN_MOTION": 15.11305119, "ECCENTRICITY": 0.00293306, "INCLINATION": 74.0759, "RA_OF_ASC_NODE": 187.829, "ARG_OF_PERICENTER": 179.7011, "MEAN_ANOMALY": 303.5901, "EPHEMERIS_TYPE": 0, "CLASSIFICATION_TYPE": "U", "NORAD_CAT_ID": 33818, "ELEMENT_SET_NO": 999, "REV_AT_EPOCH": 89704, "BSTAR": 0.0023095329, "MEAN_MOTION_DOT": 0.00039484, "MEAN_MOTION_DDOT": 0}, "tle": {"line1": "1 33818U 93036BK  25336.28597282  .00039484  00000+0  23095-2 0  9994", "line2": "2 33818  74.0759 187.8290 0029330 179.7011 303.5901 15.11305119897041"}}, "geometry": {"type": "Point", "coordinates": [103.33703204844963, -73.97905272910785]}}, {"type": "Feature", "properties": {"norad_id": 33819, "name": "COSMOS 2251 DEB", "group": "cosmos-2251-debris", "lat": 63.41986366286417, "lon": -97.25530842791196, "alt_km": 719.9564616792577, "timestamp": "2025-12-02T13:52:17.653930+00:00", "meta": {"OBJECT_NAME": "COSMOS 2251 DEB", "OBJECT_ID": "1993-036BL", "EPOCH": "2025-12-02T04:12:21.098880", "MEAN_MOTION": 14.32161014, "ECCENTRICITY": 0.00887308, "INCLINATION": 74.1798, "RA_OF_ASC_NODE": 228.9526, "ARG_OF_PERICENTER": 93.5544, "MEAN_ANOMALY": 59.6789, "EPHEMERIS_TYPE": 0, "CLASSIFICATION_TYPE": "U", "NORAD_CAT_ID": 33819, "ELEMENT_SET_NO": 999, "REV_AT_EPOCH": 87344, "BSTAR": 0.00074767135, "MEAN_MOTION_DOT": 2.078e-05, "MEAN_MOTION_DDOT": 0}, "tle": {"line1": "1 33819U 93036BL  25336.17524420  .00002078  00000+0  74767-3 0  9999", "line2": "2 33819  74.1798 228.9526 0088730  93.5544  59.6789 14.32161014873445"}}, "geometry": {"type": "Point", "coordinates": [-97.25530842791196, 63.41986366286417]}}, {"type": "Feature", "properties": {"norad_id": 33821, "name": "COSMOS 2251 DEB", "group": "cosmos-2251-debris", "lat": -37.79514690146497, "lon": 151.47202334839503, "alt_km": 517.2756285721089, "timestamp": "2025-12-02T13:52:17.653942+00:00", "meta": {"OBJECT_NAME": "COSMOS 2251 DEB", "OBJECT_ID": "1993-036BN", "EPOCH": "2025-12-01T22:17:42.990720", "MEAN_MOTION": 15.24355057, "ECCENTRICITY": 0.00545169, "INCLINATION": 74.0301, "RA_OF_ASC_NODE": 165.6738, "ARG_OF_PERICENTER": 202.0308, "MEAN_ANOMALY": 157.8549, "EPHEMERIS_TYPE": 0, "CLASSIFICATION_TYPE": "U", "NORAD_CAT_ID": 33821, "ELEMENT_SET_NO": 999, "REV_AT_EPOCH": 74836, "BSTAR": 0.0012120837, "MEAN_MOTION_DOT": 0.00031039, "MEAN_MOTION_DDOT": 0}, "tle": {"line1": "1 33821U 93036BN  25335.92896980  .00031039  00000+0  12121-2 0  9991", "line2": "2 33821  74.0301 165.6738 0054516 202.0308 157.8549 15.24355057748360"}}, "geometry": {"type": "Point", "coordinates": [151.47202334839503, -37.79514690146497]}}, {"type": "Feature", "properties": {"norad_id": 33822, "name": "COSMOS 2251 DEB", "group": "cosmos-2251-debris", "lat": -52.00841087563048, "lon": 53.06848975581321, "alt_km": 754.7819949602072, "timestamp": "2025-12-02T13:52:17.653954+00:00", "meta": {"OBJECT_NAME": "COSMOS 2251 DEB", "OBJECT_ID": "1993-036BP", "EPOCH": "2025-12-02T03:09:17.363808", "MEAN_MOTION": 14.12986397, "ECCENTRICITY": 0.01540583, "INCLINATION": 74.0703, "RA_OF_ASC_NODE": 212.4081, "ARG_OF_PERICENTER": 261.1851, "MEAN_ANOMALY": 224.0386, "EPHEMERIS_TYPE": 0, "CLASSIFICATION_TYPE": "U", "NORAD_CAT_ID": 33822, "ELEMENT_SET_NO": 999, "REV_AT_EPOCH": 85904, "BSTAR": 0.0014509558, "MEAN_MOTION_DOT": 3.003e-05, "MEAN_MOTION_DDOT": 0}, "tle": {"line1": "1 33822U 93036BP  25336.13145097  .00003003  00000+0  14510-2 0  9996", "line2": "2 33822  74.0703 212.4081 0154058 261.1851 224.0386 14.12986397859047"}}, "geometry": {"type": "Point", "coordinates": [53.06848975581321, -52.00841087563048]}}, {"type": "Feature", "properties": {"norad_id": 33823, "name": "COSMOS 2251 DEB", "group": "cosmos-2251-debris", "lat": -29.231169492063405, "lon": -3.5038741602453127, "alt_km": 882.6131534020305, "timestamp": "2025-12-02T13:52:17.653965+00:00", "meta": {"OBJECT_NAME": "COSMOS 2251 DEB", "OBJECT_ID": "1993-036BQ", "EPOCH": "2025-12-02T06:51:19.414368", "MEAN_MOTION": 13.98909048, "ECCENTRICITY": 0.02092473, "INCLINATION": 73.8087, "RA_OF_ASC_NODE": 167.6512, "ARG_OF_PERICENTER": 294.4982, "MEAN_ANOMALY": 246.6558, "EPHEMERIS_TYPE": 0, "CLASSIFICATION_TYPE": "U", "NORAD_CAT_ID": 33823, "ELEMENT_SET_NO": 999, "REV_AT_EPOCH": 85463, "BSTAR": 0.00091010607, "MEAN_MOTION_DOT": 1.557e-05, "MEAN_MOTION_DDOT": 0}, "tle": {"line1": "1 33823U 93036BQ  25336.28564137  .00001557  00000+0  91011-3 0  9997", "line2": "2 33823  73.8087 167.6512 0209247 294.4982 246.6558 13.98909048854637"}}, "geometry": {"type": "Point", "coordinates": [-3.5038741602453127, -29.231169492063405]}}]}